IRIDIUM 159             
1 43578U 18061K   25200.68947340  .00000002  00000+0 -64844-5 0  9996
2 43578  86.3989 195.6266 0002377  91.1930 268.9538 14.34217431365723
IRIDIUM 180             
1 43922U 19002A   25200.75873734 -.00000004  00000+0 -85665-5 0  9995
2 43922  86.4003 132.5813 0002219  82.0290 278.1158 14.34217904341343
IRIDIUM 176             
1 43923U 19002B   25200.32113707  .00000712  00000+0  10902-3 0  9990
2 43923  86.6125 132.7542 0002411  70.5595 289.5883 14.72258628350279
IRIDIUM 168             
1 43924U 19002C   25200.75239527  .00000015  00000+0 -15317-5 0  9991
2 43924  86.4003 132.6519 0002248  83.7138 276.4313 14.34217707341323
IRIDIUM 173             
1 43925U 19002D   25200.87925545  .00000212  00000+0  68628-4 0  9997
2 43925  86.3999 132.5015 0002282  79.8909 280.2544 14.34218232341320
IRIDIUM 169             
1 43926U 19002E   25200.63653768  .00000265  00000+0  80057-4 0  9995
2 43926  86.4270 164.1884 0002062  48.4879 311.6496 14.38606968342410
IRIDIUM 172             
1 43927U 19002F   25200.87290495  .00000012  00000+0 -26546-5 0  9991
2 43927  86.4000 132.5108 0002398  83.0572 277.0896 14.34217655341333
IRIDIUM 175             
1 43928U 19002G   25200.92785359  .00000638  00000+0  97212-4 0  9996
2 43928  86.1480  83.1485 0001411  93.9786 266.1592 14.72247438350352
